STARLINK-36720          
1 67655U 26022H   26052.26408359  .00211375  00000+0  13772-2 0  9993
2 67655  97.2840  85.4377 0001347  88.1578 271.9842 15.75291236  2968
STARLINK-36688          
1 67656U 26022J   26052.26339134  .00215727  00000+0  14045-2 0  9997
2 67656  97.2844  85.4381 0001392  72.8294 287.3124 15.75296143  2969
STARLINK-36706          
1 67657U 26022K   26052.26196693  .00094058  00000+0  62318-3 0  9998
2 67657  97.2844  85.4390 0001259  94.8105 265.3304 15.75241204  2961
STARLINK-36701          
1 67658U 26022L   26052.26090956  .00240994  00000+0  15647-2 0  9998
2 67658  97.2844  85.4413 0001357  90.8303 269.3118 15.75289083  2967
STARLINK-36642          
1 67659U 26022M   26052.25985043  .00089235  00000+0  59162-3 0  9998
2 67659  97.2843  85.4434 0001365  99.2725 260.8694 15.75240133  2968
STARLINK-36673          
1 67660U 26022N   26052.19491105  .00148823  00000+0  97804-3 0  9998
2 67660  97.2841  85.3776 0001303  86.5081 273.6334 15.75268357  2952
STARLINK-36674          
1 67661U 26022P   26052.25702614  .00205124  00000+0  13378-2 0  9997
2 67661  97.2844  85.4465 0001442  88.9424 271.2006 15.75286248  2963
STARLINK-36700          
1 67662U 26022Q   26052.25491173  .00269987  00000+0  17463-2 0  9999
2 67662  97.2842  85.4493 0001873 111.3243 248.8223 15.75296452  2960
STARLINK-36675          
1 67663U 26022R   26052.25632199  .00189273  00000+0  12375-2 0  9991
2 67663  97.2839  85.4476 0001718 109.0958 251.0494 15.75272701  2960
STARLINK-36404          
1 67664U 26022S   26052.25314737  .00200415  00000+0  13088-2 0  9991
2 67664  97.2844  85.4504 0001665  96.9699 263.1756 15.75269197  2966
STARLINK-36399          
1 67665U 26022T   26052.25244278  .00188764  00000+0  12348-2 0  9994
2 67665  97.2843  85.4520 0001912 111.8162 248.3307 15.75260936  2960
STARLINK-36365          
1 67666U 26022U   26052.25103093  .00260369  00000+0  16864-2 0  9993
2 67666  97.2837  85.4539 0002181 117.5654 242.5834 15.75291206  2967
