CCSDS_OMM_VERS = 2.0
CREATION_DATE  = 
ORIGINATOR     = 

OBJECT_NAME    = STARLINK-36720
OBJECT_ID      = 2026-022H
CENTER_NAME    = EARTH
REF_FRAME      = TEME
TIME_SYSTEM    = UTC
MEAN_ELEMENT_THEORY = SGP/SGP4

EPOCH          = 2026-02-21T06:20:16.822176
MEAN_MOTION    = 15.75291236
ECCENTRICITY   = .00013478
INCLINATION    = 97.2840
RA_OF_ASC_NODE = 85.4377
ARG_OF_PERICENTER = 88.1578
MEAN_ANOMALY   = 271.9842

EPHEMERIS_TYPE = 0
CLASSIFICATION_TYPE = U
NORAD_CAT_ID   = 67655
ELEMENT_SET_NO = 999
REV_AT_EPOCH   = 296
BSTAR          = .13771871E-2
MEAN_MOTION_DOT = .211375E-2
MEAN_MOTION_DDOT = 0

CCSDS_OMM_VERS = 2.0
CREATION_DATE  = 
ORIGINATOR     = 

OBJECT_NAME    = STARLINK-36688
OBJECT_ID      = 2026-022J
CENTER_NAME    = EARTH
REF_FRAME      = TEME
TIME_SYSTEM    = UTC
MEAN_ELEMENT_THEORY = SGP/SGP4

EPOCH          = 2026-02-21T06:19:17.011776
MEAN_MOTION    = 15.75296143
ECCENTRICITY   = .00013928
INCLINATION    = 97.2844
RA_OF_ASC_NODE = 85.4381
ARG_OF_PERICENTER = 72.8294
MEAN_ANOMALY   = 287.3124

EPHEMERIS_TYPE = 0
CLASSIFICATION_TYPE = U
NORAD_CAT_ID   = 67656
ELEMENT_SET_NO = 999
REV_AT_EPOCH   = 296
BSTAR          = .14045069E-2
MEAN_MOTION_DOT = .215727E-2
MEAN_MOTION_DDOT = 0

CCSDS_OMM_VERS = 2.0
CREATION_DATE  = 
ORIGINATOR     = 

OBJECT_NAME    = STARLINK-36706
OBJECT_ID      = 2026-022K
CENTER_NAME    = EARTH
REF_FRAME      = TEME
TIME_SYSTEM    = UTC
MEAN_ELEMENT_THEORY = SGP/SGP4

EPOCH          = 2026-02-21T06:17:13.942752
MEAN_MOTION    = 15.75241204
ECCENTRICITY   = .00012591
INCLINATION    = 97.2844
RA_OF_ASC_NODE = 85.4390
ARG_OF_PERICENTER = 94.8105
MEAN_ANOMALY   = 265.3304

EPHEMERIS_TYPE = 0
CLASSIFICATION_TYPE = U
NORAD_CAT_ID   = 67657
ELEMENT_SET_NO = 999
REV_AT_EPOCH   = 296
BSTAR          = .62317625E-3
MEAN_MOTION_DOT = .94058E-3
MEAN_MOTION_DDOT = 0

CCSDS_OMM_VERS = 2.0
CREATION_DATE  = 
ORIGINATOR     = 

OBJECT_NAME    = STARLINK-36701
OBJECT_ID      = 2026-022L
CENTER_NAME    = EARTH
REF_FRAME      = TEME
TIME_SYSTEM    = UTC
MEAN_ELEMENT_THEORY = SGP/SGP4

EPOCH          = 2026-02-21T06:15:42.585984
MEAN_MOTION    = 15.75289083
ECCENTRICITY   = .00013574
INCLINATION    = 97.2844
RA_OF_ASC_NODE = 85.4413
ARG_OF_PERICENTER = 90.8303
MEAN_ANOMALY   = 269.3118

EPHEMERIS_TYPE = 0
CLASSIFICATION_TYPE = U
NORAD_CAT_ID   = 67658
ELEMENT_SET_NO = 999
REV_AT_EPOCH   = 296
BSTAR          = .15647104E-2
MEAN_MOTION_DOT = .240994E-2
MEAN_MOTION_DDOT = 0

CCSDS_OMM_VERS = 2.0
CREATION_DATE  = 
ORIGINATOR     = 

OBJECT_NAME    = STARLINK-36642
OBJECT_ID      = 2026-022M
CENTER_NAME    = EARTH
REF_FRAME      = TEME
TIME_SYSTEM    = UTC
MEAN_ELEMENT_THEORY = SGP/SGP4

EPOCH          = 2026-02-21T06:14:11.077152
MEAN_MOTION    = 15.75240133
ECCENTRICITY   = .00013656
INCLINATION    = 97.2843
RA_OF_ASC_NODE = 85.4434
ARG_OF_PERICENTER = 99.2725
MEAN_ANOMALY   = 260.8694

EPHEMERIS_TYPE = 0
CLASSIFICATION_TYPE = U
NORAD_CAT_ID   = 67659
ELEMENT_SET_NO = 999
REV_AT_EPOCH   = 296
BSTAR          = .59162143E-3
MEAN_MOTION_DOT = .89235E-3
MEAN_MOTION_DDOT = 0

CCSDS_OMM_VERS = 2.0
CREATION_DATE  = 
ORIGINATOR     = 

OBJECT_NAME    = STARLINK-36673
OBJECT_ID      = 2026-022N
CENTER_NAME    = EARTH
REF_FRAME      = TEME
TIME_SYSTEM    = UTC
MEAN_ELEMENT_THEORY = SGP/SGP4

EPOCH          = 2026-02-21T04:40:40.314720
MEAN_MOTION    = 15.75268357
ECCENTRICITY   = .00013038
INCLINATION    = 97.2841
RA_OF_ASC_NODE = 85.3776
ARG_OF_PERICENTER = 86.5081
MEAN_ANOMALY   = 273.6334

EPHEMERIS_TYPE = 0
CLASSIFICATION_TYPE = U
NORAD_CAT_ID   = 67660
ELEMENT_SET_NO = 999
REV_AT_EPOCH   = 295
BSTAR          = .97803797E-3
MEAN_MOTION_DOT = .148823E-2
MEAN_MOTION_DDOT = 0

CCSDS_OMM_VERS = 2.0
CREATION_DATE  = 
ORIGINATOR     = 

OBJECT_NAME    = STARLINK-36674
OBJECT_ID      = 2026-022P
CENTER_NAME    = EARTH
REF_FRAME      = TEME
TIME_SYSTEM    = UTC
MEAN_ELEMENT_THEORY = SGP/SGP4

EPOCH          = 2026-02-21T06:10:07.058496
MEAN_MOTION    = 15.75286248
ECCENTRICITY   = .00014425
INCLINATION    = 97.2844
RA_OF_ASC_NODE = 85.4465
ARG_OF_PERICENTER = 88.9424
MEAN_ANOMALY   = 271.2006

EPHEMERIS_TYPE = 0
CLASSIFICATION_TYPE = U
NORAD_CAT_ID   = 67661
ELEMENT_SET_NO = 999
REV_AT_EPOCH   = 296
BSTAR          = .133776E-2
MEAN_MOTION_DOT = .205124E-2
MEAN_MOTION_DDOT = 0

CCSDS_OMM_VERS = 2.0
CREATION_DATE  = 
ORIGINATOR     = 

OBJECT_NAME    = STARLINK-36700
OBJECT_ID      = 2026-022Q
CENTER_NAME    = EARTH
REF_FRAME      = TEME
TIME_SYSTEM    = UTC
MEAN_ELEMENT_THEORY = SGP/SGP4

EPOCH          = 2026-02-21T06:07:04.373472
MEAN_MOTION    = 15.75296452
ECCENTRICITY   = .00018735
INCLINATION    = 97.2842
RA_OF_ASC_NODE = 85.4493
ARG_OF_PERICENTER = 111.3243
MEAN_ANOMALY   = 248.8223

EPHEMERIS_TYPE = 0
CLASSIFICATION_TYPE = U
NORAD_CAT_ID   = 67662
ELEMENT_SET_NO = 999
REV_AT_EPOCH   = 296
BSTAR          = .17462953E-2
MEAN_MOTION_DOT = .269987E-2
MEAN_MOTION_DDOT = 0

CCSDS_OMM_VERS = 2.0
CREATION_DATE  = 
ORIGINATOR     = 

OBJECT_NAME    = STARLINK-36675
OBJECT_ID      = 2026-022R
CENTER_NAME    = EARTH
REF_FRAME      = TEME
TIME_SYSTEM    = UTC
MEAN_ELEMENT_THEORY = SGP/SGP4

EPOCH          = 2026-02-21T06:09:06.219936
MEAN_MOTION    = 15.75272701
ECCENTRICITY   = .00017187
INCLINATION    = 97.2839
RA_OF_ASC_NODE = 85.4476
ARG_OF_PERICENTER = 109.0958
MEAN_ANOMALY   = 251.0494

EPHEMERIS_TYPE = 0
CLASSIFICATION_TYPE = U
NORAD_CAT_ID   = 67663
ELEMENT_SET_NO = 999
REV_AT_EPOCH   = 296
BSTAR          = .12374746E-2
MEAN_MOTION_DOT = .189273E-2
MEAN_MOTION_DDOT = 0

CCSDS_OMM_VERS = 2.0
CREATION_DATE  = 
ORIGINATOR     = 

OBJECT_NAME    = STARLINK-36404
OBJECT_ID      = 2026-022S
CENTER_NAME    = EARTH
REF_FRAME      = TEME
TIME_SYSTEM    = UTC
MEAN_ELEMENT_THEORY = SGP/SGP4

EPOCH          = 2026-02-21T06:04:31.932768
MEAN_MOTION    = 15.75269197
ECCENTRICITY   = .00016654
INCLINATION    = 97.2844
RA_OF_ASC_NODE = 85.4504
ARG_OF_PERICENTER = 96.9699
MEAN_ANOMALY   = 263.1756

EPHEMERIS_TYPE = 0
CLASSIFICATION_TYPE = U
NORAD_CAT_ID   = 67664
ELEMENT_SET_NO = 999
REV_AT_EPOCH   = 296
BSTAR          = .13087531E-2
MEAN_MOTION_DOT = .200415E-2
MEAN_MOTION_DDOT = 0

CCSDS_OMM_VERS = 2.0
CREATION_DATE  = 
ORIGINATOR     = 

OBJECT_NAME    = STARLINK-36399
OBJECT_ID      = 2026-022T
CENTER_NAME    = EARTH
REF_FRAME      = TEME
TIME_SYSTEM    = UTC
MEAN_ELEMENT_THEORY = SGP/SGP4

EPOCH          = 2026-02-21T06:03:31.056192
MEAN_MOTION    = 15.75260936
ECCENTRICITY   = .00019123
INCLINATION    = 97.2843
RA_OF_ASC_NODE = 85.4520
ARG_OF_PERICENTER = 111.8162
MEAN_ANOMALY   = 248.3307

EPHEMERIS_TYPE = 0
CLASSIFICATION_TYPE = U
NORAD_CAT_ID   = 67665
ELEMENT_SET_NO = 999
REV_AT_EPOCH   = 296
BSTAR          = .12348407E-2
MEAN_MOTION_DOT = .188764E-2
MEAN_MOTION_DDOT = 0

CCSDS_OMM_VERS = 2.0
CREATION_DATE  = 
ORIGINATOR     = 

OBJECT_NAME    = STARLINK-36365
OBJECT_ID      = 2026-022U
CENTER_NAME    = EARTH
REF_FRAME      = TEME
TIME_SYSTEM    = UTC
MEAN_ELEMENT_THEORY = SGP/SGP4

EPOCH          = 2026-02-21T06:01:29.072352
MEAN_MOTION    = 15.75291206
ECCENTRICITY   = .00021815
INCLINATION    = 97.2837
RA_OF_ASC_NODE = 85.4539
ARG_OF_PERICENTER = 117.5654
MEAN_ANOMALY   = 242.5834

EPHEMERIS_TYPE = 0
CLASSIFICATION_TYPE = U
NORAD_CAT_ID   = 67666
ELEMENT_SET_NO = 999
REV_AT_EPOCH   = 296
BSTAR          = .16863922E-2
MEAN_MOTION_DOT = .260369E-2
MEAN_MOTION_DDOT = 0

